ONEWEB-0183             
1 48219U 21031K   25321.43199021  .00000023  00000+0  26943-4 0  9995
2 48219  87.8979 331.9037 0001573  92.8047 267.3263 13.14501720220508
ONEWEB-0185             
1 48220U 21031L   25321.07758866 -.00000005  00000+0 -47252-4 0  9993
2 48220  87.8988 331.9459 0001530  81.2379 278.8924 13.14502796220382
ONEWEB-0187             
1 48221U 21031M   25321.43821148 -.00000257  00000+0 -72689-3 0  9998
2 48221  87.8985 331.9189 0001744  82.2332 277.8995 13.14503116220448
ONEWEB-0192             
1 48222U 21031N   25321.48432426  .00000274  00000+0  70448-3 0  9999
2 48222  87.8983 331.9007 0001912  91.3640 268.7709 13.14501859220361
ONEWEB-0219             
1 48223U 21031P   25321.46371081  .00000022  00000+0  23556-4 0  9997
2 48223  87.8989 331.8807 0001673  83.7793 276.3527 13.14502428220561
ONEWEB-0202             
1 48224U 21031Q   25321.44469378 -.00000195  00000+0 -55931-3 0  9997
2 48224  87.8984 331.8976 0002395  78.9248 281.2151 13.14503250220547
ONEWEB-0204             
1 48225U 21031R   25321.47879071  .00000264  00000+0  67637-3 0  9997
2 48225  87.8988 331.8797 0001540  96.2034 263.9271 13.14502080220449
ONEWEB-0205             
1 48226U 21031S   25321.45419667 -.00000091  00000+0 -28070-3 0  9995
2 48226  87.8990 331.8779 0001766  87.0686 273.0646 13.14501743220458
ONEWEB-0206             
1 48227U 21031T   25321.42724384  .00000084  00000+0  19222-3 0  9997
2 48227  87.9001 331.8712 0002011  98.1189 262.0169 13.14501607220407
ONEWEB-0182             
1 48228U 21031U   25321.49860030  .00000257  00000+0  65925-3 0  9997
2 48228  87.8982 331.8906 0001671  93.1611 266.9710 13.14500998220627
ONEWEB-0186             
1 48229U 21031V   25321.43358734 -.00000042  00000+0 -14677-3 0  9997
2 48229  87.8998 331.8760 0001812  88.1355 271.9982 13.14501466220560
ONEWEB-0181             
1 48230U 21031W   25321.48749648  .00000274  00000+0  70397-3 0  9998
2 48230  87.8980 331.9239 0001885  86.7356 273.3989 13.14501970220428
ONEWEB-0188             
1 48231U 21031X   25321.44944713 -.00000129  00000+0 -38123-3 0  9997
2 48231  87.8981 331.9275 0001755  91.4123 268.7207 13.14502722220327
ONEWEB-0220             
1 48232U 21031Y   25321.48909595  .00000217  00000+0  55117-3 0  9999
2 48232  87.8995 331.8645 0001619  85.6719 274.4596 13.14503154220592
ONEWEB-0165             
1 48233U 21031Z   25321.44151693  .00000900  00000+0  23932-2 0  9992
2 48233  87.8983 331.9031 0002195  88.7179 271.4202 13.14494725220543
ONEWEB-0199             
1 48234U 21031AA  25321.42566317  .00000082  00000+0  18741-3 0  9998
2 48234  87.8990 331.8794 0001866  97.2083 262.9259 13.14502419220446
ONEWEB-0203             
1 48235U 21031AB  25321.49225271  .00000151  00000+0  37293-3 0  9997
2 48235  87.8990 331.8676 0002089  92.5637 267.5732 13.14501585220469
