[{"OBJECT_NAME":"ONEWEB-0183","OBJECT_ID":"2021-031K","EPOCH":"2025-11-17T10:22:03.954144","MEAN_MOTION":13.1450172,"ECCENTRICITY":0.0001573,"INCLINATION":87.8979,"RA_OF_ASC_NODE":331.9037,"ARG_OF_PERICENTER":92.8047,"MEAN_ANOMALY":267.3263,"EPHEMERIS_TYPE":0,"CLASSIFICATION_TYPE":"U","NORAD_CAT_ID":48219,"ELEMENT_SET_NO":999,"REV_AT_EPOCH":22050,"BSTAR":2.6943e-5,"MEAN_MOTION_DOT":2.3e-7,"MEAN_MOTION_DDOT":0},{"OBJECT_NAME":"ONEWEB-0185","OBJECT_ID":"2021-031L","EPOCH":"2025-11-17T01:51:43.660224","MEAN_MOTION":13.14502796,"ECCENTRICITY":0.00015306,"INCLINATION":87.8988,"RA_OF_ASC_NODE":331.9459,"ARG_OF_PERICENTER":81.2379,"MEAN_ANOMALY":278.8924,"EPHEMERIS_TYPE":0,"CLASSIFICATION_TYPE":"U","NORAD_CAT_ID":48220,"ELEMENT_SET_NO":999,"REV_AT_EPOCH":22038,"BSTAR":-4.7252267e-5,"MEAN_MOTION_DOT":-5.0e-8,"MEAN_MOTION_DDOT":0},{"OBJECT_NAME":"ONEWEB-0187","OBJECT_ID":"2021-031M","EPOCH":"2025-11-17T10:31:01.471872","MEAN_MOTION":13.14503116,"ECCENTRICITY":0.0001744,"INCLINATION":87.8985,"RA_OF_ASC_NODE":331.9189,"ARG_OF_PERICENTER":82.2332,"MEAN_ANOMALY":277.8995,"EPHEMERIS_TYPE":0,"CLASSIFICATION_TYPE":"U","NORAD_CAT_ID":48221,"ELEMENT_SET_NO":999,"REV_AT_EPOCH":22044,"BSTAR":-0.00072689,"MEAN_MOTION_DOT":-2.57e-6,"MEAN_MOTION_DDOT":0},{"OBJECT_NAME":"ONEWEB-0192","OBJECT_ID":"2021-031N","EPOCH":"2025-11-17T11:37:25.616064","MEAN_MOTION":13.14501859,"ECCENTRICITY":0.0001912,"INCLINATION":87.8983,"RA_OF_ASC_NODE":331.9007,"ARG_OF_PERICENTER":91.364,"MEAN_ANOMALY":268.7709,"EPHEMERIS_TYPE":0,"CLASSIFICATION_TYPE":"U","NORAD_CAT_ID":48222,"ELEMENT_SET_NO":999,"REV_AT_EPOCH":22036,"BSTAR":0.00070448,"MEAN_MOTION_DOT":2.74e-6,"MEAN_MOTION_DDOT":0},{"OBJECT_NAME":"ONEWEB-0219","OBJECT_ID":"2021-031P","EPOCH":"2025-11-17T11:07:44.613984","MEAN_MOTION":13.14502428,"ECCENTRICITY":0.0001673,"INCLINATION":87.8989,"RA_OF_ASC_NODE":331.8807,"ARG_OF_PERICENTER":83.7793,"MEAN_ANOMALY":276.3527,"EPHEMERIS_TYPE":0,"CLASSIFICATION_TYPE":"U","NORAD_CAT_ID":48223,"ELEMENT_SET_NO":999,"REV_AT_EPOCH":22056,"BSTAR":2.3556e-5,"MEAN_MOTION_DOT":2.2e-7,"MEAN_MOTION_DDOT":0},{"OBJECT_NAME":"ONEWEB-0202","OBJECT_ID":"2021-031Q","EPOCH":"2025-11-17T10:40:21.542592","MEAN_MOTION":13.1450325,"ECCENTRICITY":0.0002395,"INCLINATION":87.8984,"RA_OF_ASC_NODE":331.8976,"ARG_OF_PERICENTER":78.9248,"MEAN_ANOMALY":281.2151,"EPHEMERIS_TYPE":0,"CLASSIFICATION_TYPE":"U","NORAD_CAT_ID":48224,"ELEMENT_SET_NO":999,"REV_AT_EPOCH":22054,"BSTAR":-0.00055931,"MEAN_MOTION_DOT":-1.95e-6,"MEAN_MOTION_DDOT":0},{"OBJECT_NAME":"ONEWEB-0204","OBJECT_ID":"2021-031R","EPOCH":"2025-11-17T11:29:27.517344","MEAN_MOTION":13.1450208,"ECCENTRICITY":0.000154,"INCLINATION":87.8988,"RA_OF_ASC_NODE":331.8797,"ARG_OF_PERICENTER":96.2034,"MEAN_ANOMALY":263.9271,"EPHEMERIS_TYPE":0,"CLASSIFICATION_TYPE":"U","NORAD_CAT_ID":48225,"ELEMENT_SET_NO":999,"REV_AT_EPOCH":22044,"BSTAR":0.00067637,"MEAN_MOTION_DOT":2.64e-6,"MEAN_MOTION_DDOT":0},{"OBJECT_NAME":"ONEWEB-0205","OBJECT_ID":"2021-031S","EPOCH":"2025-11-17T10:54:02.592288","MEAN_MOTION":13.14501743,"ECCENTRICITY":0.0001766,"INCLINATION":87.899,"RA_OF_ASC_NODE":331.8779,"ARG_OF_PERICENTER":87.0686,"MEAN_ANOMALY":273.0646,"EPHEMERIS_TYPE":0,"CLASSIFICATION_TYPE":"U","NORAD_CAT_ID":48226,"ELEMENT_SET_NO":999,"REV_AT_EPOCH":22045,"BSTAR":-0.0002807,"MEAN_MOTION_DOT":-9.1e-7,"MEAN_MOTION_DDOT":0},{"OBJECT_NAME":"ONEWEB-0206","OBJECT_ID":"2021-031T","EPOCH":"2025-11-17T10:15:13.867776","MEAN_MOTION":13.14501607,"ECCENTRICITY":0.0002011,"INCLINATION":87.9001,"RA_OF_ASC_NODE":331.8712,"ARG_OF_PERICENTER":98.1189,"MEAN_ANOMALY":262.0169,"EPHEMERIS_TYPE":0,"CLASSIFICATION_TYPE":"U","NORAD_CAT_ID":48227,"ELEMENT_SET_NO":999,"REV_AT_EPOCH":22040,"BSTAR":0.00019222,"MEAN_MOTION_DOT":8.4e-7,"MEAN_MOTION_DDOT":0},{"OBJECT_NAME":"ONEWEB-0182","OBJECT_ID":"2021-031U","EPOCH":"2025-11-17T11:57:59.065920","MEAN_MOTION":13.14500998,"ECCENTRICITY":0.0001671,"INCLINATION":87.8982,"RA_OF_ASC_NODE":331.8906,"ARG_OF_PERICENTER":93.1611,"MEAN_ANOMALY":266.971,"EPHEMERIS_TYPE":0,"CLASSIFICATION_TYPE":"U","NORAD_CAT_ID":48228,"ELEMENT_SET_NO":999,"REV_AT_EPOCH":22062,"BSTAR":0.00065925,"MEAN_MOTION_DOT":2.57e-6,"MEAN_MOTION_DDOT":0},{"OBJECT_NAME":"ONEWEB-0186","OBJECT_ID":"2021-031V","EPOCH":"2025-11-17T10:24:21.946176","MEAN_MOTION":13.14501466,"ECCENTRICITY":0.0001812,"INCLINATION":87.8998,"RA_OF_ASC_NODE":331.876,"ARG_OF_PERICENTER":88.1355,"MEAN_ANOMALY":271.9982,"EPHEMERIS_TYPE":0,"CLASSIFICATION_TYPE":"U","NORAD_CAT_ID":48229,"ELEMENT_SET_NO":999,"REV_AT_EPOCH":22056,"BSTAR":-0.00014677,"MEAN_MOTION_DOT":-4.2e-7,"MEAN_MOTION_DDOT":0},{"OBJECT_NAME":"ONEWEB-0181","OBJECT_ID":"2021-031W","EPOCH":"2025-11-17T11:41:59.695872","MEAN_MOTION":13.1450197,"ECCENTRICITY":0.0001885,"INCLINATION":87.898,"RA_OF_ASC_NODE":331.9239,"ARG_OF_PERICENTER":86.7356,"MEAN_ANOMALY":273.3989,"EPHEMERIS_TYPE":0,"CLASSIFICATION_TYPE":"U","NORAD_CAT_ID":48230,"ELEMENT_SET_NO":999,"REV_AT_EPOCH":22042,"BSTAR":0.00070397,"MEAN_MOTION_DOT":2.74e-6,"MEAN_MOTION_DDOT":0},{"OBJECT_NAME":"ONEWEB-0188","OBJECT_ID":"2021-031X","EPOCH":"2025-11-17T10:47:12.232032","MEAN_MOTION":13.14502722,"ECCENTRICITY":0.0001755,"INCLINATION":87.8981,"RA_OF_ASC_NODE":331.9275,"ARG_OF_PERICENTER":91.4123,"MEAN_ANOMALY":268.7207,"EPHEMERIS_TYPE":0,"CLASSIFICATION_TYPE":"U","NORAD_CAT_ID":48231,"ELEMENT_SET_NO":999,"REV_AT_EPOCH":22032,"BSTAR":-0.00038123,"MEAN_MOTION_DOT":-1.29e-6,"MEAN_MOTION_DDOT":0},{"OBJECT_NAME":"ONEWEB-0220","OBJECT_ID":"2021-031Y","EPOCH":"2025-11-17T11:44:17.890080","MEAN_MOTION":13.14503154,"ECCENTRICITY":0.0001619,"INCLINATION":87.8995,"RA_OF_ASC_NODE":331.8645,"ARG_OF_PERICENTER":85.6719,"MEAN_ANOMALY":274.4596,"EPHEMERIS_TYPE":0,"CLASSIFICATION_TYPE":"U","NORAD_CAT_ID":48232,"ELEMENT_SET_NO":999,"REV_AT_EPOCH":22059,"BSTAR":0.00055117,"MEAN_MOTION_DOT":2.17e-6,"MEAN_MOTION_DDOT":0},{"OBJECT_NAME":"ONEWEB-0165","OBJECT_ID":"2021-031Z","EPOCH":"2025-11-17T10:35:47.062752","MEAN_MOTION":13.14494725,"ECCENTRICITY":0.0002195,"INCLINATION":87.8983,"RA_OF_ASC_NODE":331.9031,"ARG_OF_PERICENTER":88.7179,"MEAN_ANOMALY":271.4202,"EPHEMERIS_TYPE":0,"CLASSIFICATION_TYPE":"U","NORAD_CAT_ID":48233,"ELEMENT_SET_NO":999,"REV_AT_EPOCH":22054,"BSTAR":0.0023932,"MEAN_MOTION_DOT":9.0e-6,"MEAN_MOTION_DDOT":0},{"OBJECT_NAME":"ONEWEB-0199","OBJECT_ID":"2021-031AA","EPOCH":"2025-11-17T10:12:57.297888","MEAN_MOTION":13.14502419,"ECCENTRICITY":0.0001866,"INCLINATION":87.899,"RA_OF_ASC_NODE":331.8794,"ARG_OF_PERICENTER":97.2083,"MEAN_ANOMALY":262.9259,"EPHEMERIS_TYPE":0,"CLASSIFICATION_TYPE":"U","NORAD_CAT_ID":48234,"ELEMENT_SET_NO":999,"REV_AT_EPOCH":22044,"BSTAR":0.00018741,"MEAN_MOTION_DOT":8.2e-7,"MEAN_MOTION_DDOT":0},{"OBJECT_NAME":"ONEWEB-0203","OBJECT_ID":"2021-031AB","EPOCH":"2025-11-17T11:48:50.634144","MEAN_MOTION":13.14501585,"ECCENTRICITY":0.0002089,"INCLINATION":87.899,"RA_OF_ASC_NODE":331.8676,"ARG_OF_PERICENTER":92.5637,"MEAN_ANOMALY":267.5732,"EPHEMERIS_TYPE":0,"CLASSIFICATION_TYPE":"U","NORAD_CAT_ID":48235,"ELEMENT_SET_NO":999,"REV_AT_EPOCH":22046,"BSTAR":0.00037293,"MEAN_MOTION_DOT":1.51e-6,"MEAN_MOTION_DDOT":0}]
